OBJECT_NAME,OBJECT_ID,EPOCH,MEAN_MOTION,ECCENTRICITY,INCLINATION,RA_OF_ASC_NODE,ARG_OF_PERICENTER,MEAN_ANOMALY,EPHEMERIS_TYPE,CLASSIFICATION_TYPE,NORAD_CAT_ID,ELEMENT_SET_NO,REV_AT_EPOCH,BSTAR,MEAN_MOTION_DOT,MEAN_MOTION_DDOT
STARLINK-5538,2023-058AS,2026-07-17T23:11:55.425408,15.05645345,.00020031,97.2833,197.5087,85.2134,274.9323,0,U,56357,999,17780,.7034401E-5,.45E-6,0
STARLINK-5482,2023-058AT,2026-07-17T22:10:07.978944,15.05652433,.00018929,97.2844,196.3465,92.8655,267.2789,0,U,56358,999,17772,.2244358E-5,-.24E-6,0
STARLINK-5551,2023-058AU,2026-07-17T21:50:12.773184,15.05648758,.00023079,97.2840,196.2158,93.3357,266.8135,0,U,56359,999,17771,-.9650877E-5,-.196E-5,0
STARLINK-5549,2023-058AV,2026-07-17T22:08:05.411904,15.05652729,.00024817,97.2843,197.4158,90.4743,269.6769,0,U,56360,999,17779,-.13987634E-4,-.258E-5,0
STARLINK-5550,2023-058AW,2026-07-17T22:26:04.998912,15.05653632,.00018197,97.2837,196.3315,89.9531,270.1905,0,U,56361,999,17772,.55116062E-4,.739E-5,0
STARLINK-5972,2023-058AX,2026-07-17T22:16:05.324160,15.05650209,.0002093,97.2847,197.4085,100.4878,259.6585,0,U,56362,999,17779,.35311163E-4,.453E-5,0
STARLINK-6156,2023-061A,2026-07-17T22:22:22.018656,15.27576729,.00008075,43.0031,182.7839,318.3839,41.6951,0,U,56374,999,17776,-.4306652E-5,-.38E-5,0
STARLINK-6158,2023-061B,2026-07-17T00:51:43.118208,15.27575908,.00016696,43.0032,187.2400,273.0223,87.0438,0,U,56375,999,17653,.16954136E-4,.204E-5,0
STARLINK-6188,2023-061C,2026-07-17T22:35:06.780480,15.27572561,.00013448,43.0039,181.9938,288.9214,71.1491,0,U,56376,999,17667,-.11810169E-4,-.587E-5,0
STARLINK-6189,2023-061D,2026-07-17T22:31:37.250112,15.27575246,.00010784,43.0019,182.8289,277.1806,82.8923,0,U,56377,999,17666,-.14782468E-4,-.669E-5,0
STARLINK-6191,2023-061E,2026-07-17T16:27:43.923456,15.27575302,.00016203,43.0035,183.5143,273.4980,86.5687,0,U,56378,999,17663,.5408188E-5,-.113E-5,0
STARLINK-6157,2023-061F,2026-07-17T22:53:36.865824,15.27574607,.00017698,43.0034,182.0933,276.2568,83.8082,0,U,56379,999,17777,.8578184E-5,-.26E-6,0
STARLINK-6159,2023-061H,2026-07-17T08:02:00.697920,15.27573540,.0000761,43.0005,186.0363,268.1953,91.8812,0,U,56381,999,17657,-.10716E-4,-.557E-5,0
STARLINK-6160,2023-061J,2026-07-17T11:02:54.519936,15.27578390,.0001332,43.0012,185.2570,278.8490,81.2211,0,U,56382,999,17659,-.10053E-3,-.3027E-4,0
STARLINK-6166,2023-061K,2026-07-17T23:30:35.788032,15.27601034,.00011193,43.0009,182.2768,258.2560,101.8166,0,U,56383,999,17667,.14652923E-3,.3775E-4,0
STARLINK-6153,2023-061L,2026-07-17T10:53:40.168896,15.27571525,.000126,43.0015,185.2098,266.0237,94.0470,0,U,56384,999,17659,-.19974E-4,-.812E-5,0
STARLINK-6173,2023-061M,2026-07-17T23:17:40.219296,15.27559482,.00014994,43.0018,182.2083,263.4047,96.6634,0,U,56385,999,17667,.43223187E-4,.927E-5,0
STARLINK-5836,2023-061N,2026-07-17T11:04:46.248096,15.27572417,.0001094,43.0015,185.2664,266.5952,93.4775,0,U,56386,999,17659,-.19865E-4,-.808E-5,0
STARLINK-6178,2023-061P,2026-07-17T22:46:12.814752,15.27573279,.00015057,43.0056,182.0524,273.0371,87.0309,0,U,56387,999,17667,-.4517558E-5,-.387E-5,0
STARLINK-6176,2023-061Q,2026-07-17T16:02:02.169024,15.27574334,.00009341,43.0029,184.2224,276.1533,83.9212,0,U,56388,999,17662,-.11188436E-4,-.57E-5,0
STARLINK-6145,2023-061R,2026-07-17T15:41:41.414784,15.27572300,.00009965,43.0012,184.1274,264.4547,95.6191,0,U,56389,999,17662,-.19526035E-4,-.799E-5,0
STARLINK-6298,2023-061T,2026-07-17T22:40:39.708192,15.27571047,.00015625,43.0045,182.0164,273.9016,86.1657,0,U,56391,999,17667,-.17220141E-4,-.736E-5,0
STARLINK-6301,2023-061U,2026-07-17T22:42:44.659008,15.27563534,.00013272,43.0019,171.5987,263.4625,96.6075,0,U,56392,999,17679,.19133058E-4,.264E-5,0
STARLINK-6303,2023-061V,2026-07-17T09:04:42.318912,15.27576881,.0001888,43.0033,185.4998,255.2251,104.8392,0,U,56393,999,17658,.25852E-4,.449E-5,0
STARLINK-6305,2023-061W,2026-07-17T23:21:23.349024,15.27588371,.00017971,43.0030,170.9429,291.6919,68.3741,0,U,56394,999,17680,.11358772E-4,.5E-6,0
STARLINK-6273,2023-061X,2026-07-17T07:27:04.741920,15.27574040,.00008,43.0021,175.4194,275.5519,84.5241,0,U,56395,999,17740,-.93078E-5,-.518E-5,0
STARLINK-6302,2023-061Y,2026-07-17T22:03:53.010720,15.27574597,.00015652,43.0028,171.3978,278.5763,81.4911,0,U,56396,999,17192,.7070205E-5,-.68E-6,0
STARLINK-6271,2023-061Z,2026-07-17T22:57:33.161184,15.27578628,.0000744,42.9993,171.6704,295.9415,64.1360,0,U,56397,999,17679,-.50547656E-4,-.1652E-4,0
STARLINK-6288,2023-061AA,2026-07-17T08:02:01.287168,15.27576188,.0001638,43.0030,174.7457,270.5847,89.4817,0,U,56398,999,17670,.43138E-5,-.144E-5,0
STARLINK-6277,2023-061AB,2026-07-17T07:50:54.248064,15.27585657,.0001389,43.0040,174.6951,275.0999,84.9694,0,U,56399,999,17670,.70832E-4,.1688E-4,0
