STARLINK-5538           
1 56357U 23058AS  26198.96661372  .00000045  00000+0  70344-5 0  9991
2 56357  97.2833 197.5087 0002003  85.2134 274.9323 15.05645345177806
STARLINK-5482           
1 56358U 23058AT  26198.92370346 -.00000024  00000+0  22444-5 0  9992
2 56358  97.2844 196.3465 0001892  92.8655 267.2789 15.05652433177721
STARLINK-5551           
1 56359U 23058AU  26198.90987006 -.00000196  00000+0 -96509-5 0  9992
2 56359  97.2840 196.2158 0002307  93.3357 266.8135 15.05648758177717
STARLINK-5549           
1 56360U 23058AV  26198.92228486 -.00000258  00000+0 -13988-4 0  9994
2 56360  97.2843 197.4158 0002481  90.4743 269.6769 15.05652729177790
STARLINK-5550           
1 56361U 23058AW  26198.93478008  .00000739  00000+0  55116-4 0  9994
2 56361  97.2837 196.3315 0001819  89.9531 270.1905 15.05653632177725
STARLINK-5972           
1 56362U 23058AX  26198.92783940  .00000453  00000+0  35311-4 0  9996
2 56362  97.2847 197.4085 0002093 100.4878 259.6585 15.05650209177791
STARLINK-6156           
1 56374U 23061A   26198.93219929 -.00000380  00000+0 -43067-5 0  9994
2 56374  43.0031 182.7839 0000807 318.3839  41.6951 15.27576729177761
STARLINK-6158           
1 56375U 23061B   26198.03591572  .00000204  00000+0  16954-4 0  9990
2 56375  43.0032 187.2400 0001669 273.0223  87.0438 15.27575908176534
STARLINK-6188           
1 56376U 23061C   26198.94105070 -.00000587  00000+0 -11810-4 0  9997
2 56376  43.0039 181.9938 0001344 288.9214  71.1491 15.27572561176674
STARLINK-6189           
1 56377U 23061D   26198.93862558 -.00000669  00000+0 -14782-4 0  9990
2 56377  43.0019 182.8289 0001078 277.1806  82.8923 15.27575246176664
STARLINK-6191           
1 56378U 23061E   26198.68592504 -.00000113  00000+0  54082-5 0  9995
2 56378  43.0035 183.5143 0001620 273.4980  86.5687 15.27575302176633
STARLINK-6157           
1 56379U 23061F   26198.95389891 -.00000026  00000+0  85782-5 0  9993
2 56379  43.0034 182.0933 0001769 276.2568  83.8082 15.27574607177773
STARLINK-6159           
1 56381U 23061H   26198.33473030 -.00000557  00000+0 -10716-4 0  9991
2 56381  43.0005 186.0363 0000761 268.1953  91.8812 15.27573540176576
STARLINK-6160           
1 56382U 23061J   26198.46035324 -.00003027  00000+0 -10053-3 0  9994
2 56382  43.0012 185.2570 0001332 278.8490  81.2211 15.27578390176591
STARLINK-6166           
1 56383U 23061K   26198.97958088  .00003775  00000+0  14653-3 0  9990
2 56383  43.0009 182.2768 0001119 258.2560 101.8166 15.27601034176676
STARLINK-6153           
1 56384U 23061L   26198.45393714 -.00000812  00000+0 -19974-4 0  9996
2 56384  43.0015 185.2098 0001260 266.0237  94.0470 15.27571525176591
STARLINK-6173           
1 56385U 23061M   26198.97060439  .00000927  00000+0  43223-4 0  9998
2 56385  43.0018 182.2083 0001499 263.4047  96.6634 15.27559482176677
STARLINK-5836           
1 56386U 23061N   26198.46164639 -.00000808  00000+0 -19865-4 0  9995
2 56386  43.0015 185.2664 0001094 266.5952  93.4775 15.27572417176598
STARLINK-6178           
1 56387U 23061P   26198.94875943 -.00000387  00000+0 -45176-5 0  9993
2 56387  43.0056 182.0524 0001505 273.0371  87.0309 15.27573279176677
STARLINK-6176           
1 56388U 23061Q   26198.66808066 -.00000570  00000+0 -11188-4 0  9994
2 56388  43.0029 184.2224 0000934 276.1533  83.9212 15.27574334176624
STARLINK-6145           
1 56389U 23061R   26198.65395156 -.00000799  00000+0 -19526-4 0  9992
2 56389  43.0012 184.1274 0000996 264.4547  95.6191 15.27572300176621
STARLINK-6298           
1 56391U 23061T   26198.94490403 -.00000736  00000+0 -17220-4 0  9998
2 56391  43.0045 182.0164 0001562 273.9016  86.1657 15.27571047176675
STARLINK-6301           
1 56392U 23061U   26198.94635022  .00000264  00000+0  19133-4 0  9996
2 56392  43.0019 171.5987 0001327 263.4625  96.6075 15.27563534176797
STARLINK-6303           
1 56393U 23061V   26198.37826758  .00000449  00000+0  25852-4 0  9992
2 56393  43.0033 185.4998 0001888 255.2251 104.8392 15.27576881176586
STARLINK-6305           
1 56394U 23061W   26198.97318691  .00000050  00000+0  11359-4 0  9996
2 56394  43.0030 170.9429 0001797 291.6919  68.3741 15.27588371176800
STARLINK-6273           
1 56395U 23061X   26198.31047155 -.00000518  00000+0 -93078-5 0  9999
2 56395  43.0021 175.4194 0000800 275.5519  84.5241 15.27574040177401
STARLINK-6302           
1 56396U 23061Y   26198.91936355 -.00000068  00000+0  70702-5 0  9993
2 56396  43.0028 171.3978 0001565 278.5763  81.4911 15.27574597171925
STARLINK-6271           
1 56397U 23061Z   26198.95663381 -.00001652  00000+0 -50548-4 0  9990
2 56397  42.9993 171.6704 0000744 295.9415  64.1360 15.27578628176795
STARLINK-6288           
1 56398U 23061AA  26198.33473712 -.00000144  00000+0  43138-5 0  9992
2 56398  43.0030 174.7457 0001638 270.5847  89.4817 15.27576188176707
STARLINK-6277           
1 56399U 23061AB  26198.32701676  .00001688  00000+0  70832-4 0  9998
2 56399  43.0040 174.6951 0001389 275.0999  84.9694 15.27585657176702
